ONEWEB-0641             
1 55805U 23029K   24112.95867276  .00000067  00000+0  13392-3 0  9992
2 55805  87.9103 101.4393 0001823  95.7575 264.3765 13.19726350 55219
ONEWEB-0642             
1 55806U 23029L   24112.95394084  .00000102  00000+0  22280-3 0  9991
2 55806  87.9109 101.4605 0001842 122.6147 237.5164 13.19725526 55206
ONEWEB-0643             
1 55807U 23029M   24112.92351118  .00000200  00000+0  50523-3 0  9990
2 55807  87.8921  86.1817 0002392 111.1632 248.9754 13.14501765 56096
ONEWEB-0644             
1 55808U 23029N   24113.02500162  .00000043  00000+0  74435-4 0  9992
2 55808  87.9109 101.4414 0001882 108.3546 251.7792 13.19726649 55903
ONEWEB-0645             
1 55809U 23029P   24112.94524539  .00000111  00000+0  24598-3 0  9997
2 55809  87.9107 101.4595 0001433  98.3162 261.8133 13.19724715 55202
ONEWEB-0646             
1 55810U 23029Q   24112.89944381  .00000046  00000+0  83173-4 0  9996
2 55810  87.9107 101.4686 0002007  96.2368 263.8993 13.19726413 55188
ONEWEB-0648             
1 55811U 23029R   24112.96791166 -.00000003  00000+0 -41927-4 0  9992
2 55811  87.8920  86.1432 0001438 121.4511 238.6759 13.14502389 56817
ONEWEB-0649             
1 55812U 23029S   24113.01394968  .00000053  00000+0  99633-4 0  9999
2 55812  87.9104 101.4429 0001694 103.0227 257.1095 13.19723670 55927
